{"type": "FeatureCollection", "features": [ {"type": "Feature", "properties": {"norad_id": 39019, "name": "PLEIADES 1B", "group": "resource", "lat": 1.900745610614937, "lon": 68.92624504481233, "alt_km": 700.4496848721965, "timestamp": "2025-12-22T16:55:17.107042+00:00", "meta": {"OBJECT_NAME": "PLEIADES 1B", "OBJECT_ID": "2012-068A", "EPOCH": "2025-12-22T05:23:15.353664", "MEAN_MOTION": 14.58560064, "ECCENTRICITY": 0.00011518, "INCLINATION": 98.1789, "RA_OF_ASC_NODE": 68.7268, "ARG_OF_PERICENTER": 85.8355, "MEAN_ANOMALY": 274.2976, "EPHEMERIS_TYPE": 0, "CLASSIFICATION_TYPE": "U", "NORAD_CAT_ID": 39019, "ELEMENT_SET_NO": 999, "REV_AT_EPOCH": 69505, "BSTAR": 3.8126112e-05, "MEAN_MOTION_DOT": 1.32e-06, "MEAN_MOTION_DDOT": 0}, "tle": {"line1": "1 39019U 12068A   25356.22448326  .00000132  00000+0  38126-4 0  9990", "line2": "2 39019  98.1789  68.7268 0001151  85.8355 274.2976 14.58560064695056"}}, "geometry": {"type": "Point", "coordinates": [68.92624504481233, 1.900745610614937]}}, {"type": "Feature", "properties": {"norad_id": 39030, "name": "GOKTURK 2", "group": "resource", "lat": 79.78818046706874, "lon": 66.45043663867455, "alt_km": 635.8834820076581, "timestamp": "2025-12-22T16:55:17.107053+00:00", "meta": {"OBJECT_NAME": "GOKTURK 2", "OBJECT_ID": "2012-073A", "EPOCH": "2025-12-22T06:43:04.889280", "MEAN_MOTION": 14.7530357, "ECCENTRICITY": 0.00013374, "INCLINATION": 97.6884, "RA_OF_ASC_NODE": 197.4639, "ARG_OF_PERICENTER": 106.8796, "MEAN_ANOMALY": 253.2561, "EPHEMERIS_TYPE": 0, "CLASSIFICATION_TYPE": "U", "NORAD_CAT_ID": 39030, "ELEMENT_SET_NO": 999, "REV_AT_EPOCH": 69842, "BSTAR": 9.971886e-05, "MEAN_MOTION_DOT": 6.28e-06, "MEAN_MOTION_DDOT": 0}, "tle": {"line1": "1 39030U 12073A   25356.27991770  .00000628  00000+0  99719-4 0  9995", "line2": "2 39030  97.6884 197.4639 0001337 106.8796 253.2561 14.75303570698427"}}, "geometry": {"type": "Point", "coordinates": [66.45043663867455, 79.78818046706874]}}, {"type": "Feature", "properties": {"norad_id": 39084, "name": "LANDSAT 8", "group": "resource", "lat": 58.57894532780063, "lon": -101.70620966679736, "alt_km": 696.198164324268, "timestamp": "2025-12-22T16:55:17.107063+00:00", "meta": {"OBJECT_NAME": "LANDSAT 8", "OBJECT_ID": "2013-008A", "EPOCH": "2025-12-22T06:28:57.154080", "MEAN_MOTION": 14.57112022, "ECCENTRICITY": 0.00010626, "INCLINATION": 98.2059, "RA_OF_ASC_NODE": 64.2024, "ARG_OF_PERICENTER": 91.6064, "MEAN_ANOMALY": 268.5256, "EPHEMERIS_TYPE": 0, "CLASSIFICATION_TYPE": "U", "NORAD_CAT_ID": 39084, "ELEMENT_SET_NO": 999, "REV_AT_EPOCH": 67213, "BSTAR": 0.00010370739, "MEAN_MOTION_DOT": 4.22e-06, "MEAN_MOTION_DDOT": 0}, "tle": {"line1": "1 39084U 13008A   25356.27010595  .00000422  00000+0  10371-3 0  9998", "line2": "2 39084  98.2059  64.2024 0001062  91.6064 268.5256 14.57112022672130"}}, "geometry": {"type": "Point", "coordinates": [-101.70620966679736, 58.57894532780063]}}, {"type": "Feature", "properties": {"norad_id": 39086, "name": "SARAL", "group": "resource", "lat": -45.63555599860475, "lon": -170.64651215915077, "alt_km": 790.7528354571423, "timestamp": "2025-12-22T16:55:17.107074+00:00", "meta": {"OBJECT_NAME": "SARAL", "OBJECT_ID": "2013-009A", "EPOCH": "2025-12-22T05:24:17.356896", "MEAN_MOTION": 14.32760226, "ECCENTRICITY": 0.00029631, "INCLINATION": 98.5502, "RA_OF_ASC_NODE": 180.0318, "ARG_OF_PERICENTER": 90.8062, "MEAN_ANOMALY": 269.3461, "EPHEMERIS_TYPE": 0, "CLASSIFICATION_TYPE": "U", "NORAD_CAT_ID": 39086, "ELEMENT_SET_NO": 999, "REV_AT_EPOCH": 67026, "BSTAR": 5.9969784e-05, "MEAN_MOTION_DOT": 1.2e-06, "MEAN_MOTION_DDOT": 0}, "tle": {"line1": "1 39086U 13009A   25356.22520089  .00000120  00000+0  59970-4 0  9994", "line2": "2 39086  98.5502 180.0318 0002963  90.8062 269.3461 14.32760226670268"}}, "geometry": {"type": "Point", "coordinates": [-170.64651215915077, -45.63555599860475]}}, {"type": "Feature", "properties": {"norad_id": 39150, "name": "GAOFEN-1", "group": "resource", "lat": -38.67360246432103, "lon": -119.21896840291971, "alt_km": 650.495916461754, "timestamp": "2025-12-22T16:55:17.107085+00:00", "meta": {"OBJECT_NAME": "GAOFEN-1", "OBJECT_ID": "2013-018A", "EPOCH": "2025-12-22T06:10:31.808640", "MEAN_MOTION": 14.7649529, "ECCENTRICITY": 0.00184607, "INCLINATION": 97.9321, "RA_OF_ASC_NODE": 66.7486, "ARG_OF_PERICENTER": 114.139, "MEAN_ANOMALY": 246.1753, "EPHEMERIS_TYPE": 0, "CLASSIFICATION_TYPE": "U", "NORAD_CAT_ID": 39150, "ELEMENT_SET_NO": 999, "REV_AT_EPOCH": 68213, "BSTAR": 9.1652708e-05, "MEAN_MOTION_DOT": 5.89e-06, "MEAN_MOTION_DDOT": 0}, "tle": {"line1": "1 39150U 13018A   25356.25731260  .00000589  00000+0  91653-4 0  9997", "line2": "2 39150  97.9321  66.7486 0018460 114.1390 246.1753 14.76495290682131"}}, "geometry": {"type": "Point", "coordinates": [-119.21896840291971, -38.67360246432103]}}, {"type": "Feature", "properties": {"norad_id": 39160, "name": "VNREDSAT 1", "group": "resource", "lat": -45.558414305205275, "lon": -136.54717523784555, "alt_km": 684.7361889379963, "timestamp": "2025-12-22T16:55:17.107096+00:00", "meta": {"OBJECT_NAME": "VNREDSAT 1", "OBJECT_ID": "2013-021B", "EPOCH": "2025-12-22T06:03:25.551648", "MEAN_MOTION": 14.64934743, "ECCENTRICITY": 0.00012008, "INCLINATION": 97.9363, "RA_OF_ASC_NODE": 51.1939, "ARG_OF_PERICENTER": 82.041, "MEAN_ANOMALY": 278.0929, "EPHEMERIS_TYPE": 0, "CLASSIFICATION_TYPE": "U", "NORAD_CAT_ID": 39160, "ELEMENT_SET_NO": 999, "REV_AT_EPOCH": 67438, "BSTAR": 5.2358278e-05, "MEAN_MOTION_DOT": 2.35e-06, "MEAN_MOTION_DDOT": 0}, "tle": {"line1": "1 39160U 13021B   25356.25237907  .00000235  00000+0  52358-4 0  9998", "line2": "2 39160  97.9363  51.1939 0001200  82.0410 278.0929 14.64934743674384"}}, "geometry": {"type": "Point", "coordinates": [-136.54717523784555, -45.558414305205275]}}, {"type": "Feature", "properties": {"norad_id": 39227, "name": "ARIRANG-5 (KOMPSAT-5)", "group": "resource", "lat": -75.3038475573059, "lon": -148.45971900772977, "alt_km": 561.0544078965313, "timestamp": "2025-12-22T16:55:17.107106+00:00", "meta": {"OBJECT_NAME": "ARIRANG-5 (KOMPSAT-5)", "OBJECT_ID": "2013-042A", "EPOCH": "2025-12-22T06:05:30.313248", "MEAN_MOTION": 15.04544055, "ECCENTRICITY": 0.0003431, "INCLINATION": 97.6157, "RA_OF_ASC_NODE": 180.4216, "ARG_OF_PERICENTER": 34.2932, "MEAN_ANOMALY": 325.8515, "EPHEMERIS_TYPE": 0, "CLASSIFICATION_TYPE": "U", "NORAD_CAT_ID": 39227, "ELEMENT_SET_NO": 999, "REV_AT_EPOCH": 67725, "BSTAR": 0.00011399696, "MEAN_MOTION_DOT": 1.537e-05, "MEAN_MOTION_DDOT": 0}, "tle": {"line1": "1 39227U 13042A   25356.25382307  .00001537  00000+0  11400-3 0  9998", "line2": "2 39227  97.6157 180.4216 0003431  34.2932 325.8515 15.04544055677255"}}, "geometry": {"type": "Point", "coordinates": [-148.45971900772977, -75.3038475573059]}}, {"type": "Feature", "properties": {"norad_id": 39418, "name": "SKYSAT-A", "group": "resource", "lat": -10.335210234870456, "lon": -134.74909587700236, "alt_km": 520.8768616739189, "timestamp": "2025-12-22T16:55:17.107117+00:00", "meta": {"OBJECT_NAME": "SKYSAT-A", "OBJECT_ID": "2013-066C", "EPOCH": "2025-12-22T01:47:01.235904", "MEAN_MOTION": 15.11668448, "ECCENTRICITY": 0.00213841, "INCLINATION": 97.4091, "RA_OF_ASC_NODE": 45.9992, "ARG_OF_PERICENTER": 202.7866, "MEAN_ANOMALY": 157.2418, "EPHEMERIS_TYPE": 0, "CLASSIFICATION_TYPE": "U", "NORAD_CAT_ID": 39418, "ELEMENT_SET_NO": 999, "REV_AT_EPOCH": 66171, "BSTAR": 0.00020684815, "MEAN_MOTION_DOT": 3.473e-05, "MEAN_MOTION_DDOT": 0}, "tle": {"line1": "1 39418U 13066C   25356.07431986  .00003473  00000+0  20685-3 0  9990", "line2": "2 39418  97.4091  45.9992 0021384 202.7866 157.2418 15.11668448661717"}}, "geometry": {"type": "Point", "coordinates": [-134.74909587700236, -10.335210234870456]}}, {"type": "Feature", "properties": {"norad_id": 39419, "name": "DUBAISAT-2", "group": "resource", "lat": -36.194226999182185, "lon": 161.31482054293554, "alt_km": 544.5467005057071, "timestamp": "2025-12-22T16:55:17.107127+00:00", "meta": {"OBJECT_NAME": "DUBAISAT-2", "OBJECT_ID": "2013-066D", "EPOCH": "2025-12-22T06:24:41.283072", "MEAN_MOTION": 15.08437651, "ECCENTRICITY": 0.00100539, "INCLINATION": 97.4445, "RA_OF_ASC_NODE": 346.3808, "ARG_OF_PERICENTER": 284.2678, "MEAN_ANOMALY": 75.7434, "EPHEMERIS_TYPE": 0, "CLASSIFICATION_TYPE": "U", "NORAD_CAT_ID": 39419, "ELEMENT_SET_NO": 999, "REV_AT_EPOCH": 65970, "BSTAR": 0.00026879567, "MEAN_MOTION_DOT": 4.128e-05, "MEAN_MOTION_DDOT": 0}, "tle": {"line1": "1 39419U 13066D   25356.26714448  .00004128  00000+0  26880-3 0  9990", "line2": "2 39419  97.4445 346.3808 0010053 284.2678  75.7434 15.08437651659706"}}, "geometry": {"type": "Point", "coordinates": [161.31482054293554, -36.194226999182185]}}, {"type": "Feature", "properties": {"norad_id": 39574, "name": "GPM-CORE", "group": "resource", "lat": -50.73052735726096, "lon": 34.163555357967304, "alt_km": 432.2416648777589, "timestamp": "2025-12-22T16:55:17.107138+00:00", "meta": {"OBJECT_NAME": "GPM-CORE", "OBJECT_ID": "2014-009C", "EPOCH": "2025-12-22T05:00:50.166144", "MEAN_MOTION": 15.44601907, "ECCENTRICITY": 0.00092665, "INCLINATION": 64.9719, "RA_OF_ASC_NODE": 180.9714, "ARG_OF_PERICENTER": 249.0119, "MEAN_ANOMALY": 111.0031, "EPHEMERIS_TYPE": 0, "CLASSIFICATION_TYPE": "U", "NORAD_CAT_ID": 39574, "ELEMENT_SET_NO": 999, "REV_AT_EPOCH": 67047, "BSTAR": 0.00017698904, "MEAN_MOTION_DOT": 8.043e-05, "MEAN_MOTION_DDOT": 0}, "tle": {"line1": "1 39574U 14009C   25356.20891396  .00008043  00000+0  17699-3 0  9990", "line2": "2 39574  64.9719 180.9714 0009266 249.0119 111.0031 15.44601907670473"}}, "geometry": {"type": "Point", "coordinates": [34.163555357967304, -50.73052735726096]}}]}